#aV2012  5 28  0  0  0.00000000     288 DD+AD WGS84 FIT  NGA
## 1690  86400.00000000   300.00000000 56075 0.0000000000000
+   31     1  2  3  4  5  6  7  8  9 10 11 12 13 14 15 16 17
+         18 19 20 21 22 23 25 26 27 28 29 30 31 32  0  0  0
+          0  0  0  0  0  0  0  0  0  0  0  0  0  0  0  0  0
+          0  0  0  0  0  0  0  0  0  0  0  0  0  0  0  0  0
+          0  0  0  0  0  0  0  0  0  0  0  0  0  0  0  0  0
++         2  2  2  2  2  2  2  2  2  2  2  2  2  2  2  2  2
++         2  2  2  2  2  2  2  2  2  2  2  2  2  2  2  0  0
++         0  0  0  0  0  0  0  0  0  0  0  0  0  0  0  0  0
++         0  0  0  0  0  0  0  0  0  0  0  0  0  0  0  0  0
++         0  0  0  0  0  0  0  0  0  0  0  0  0  0  0  0  0
%c cc cc ccc ccc cccc cccc cccc cccc ccccc ccccc ccccc ccccc
%c cc cc ccc ccc cccc cccc cccc cccc ccccc ccccc ccccc ccccc
%f  0.0000000  0.000000000  0.00000000000  0.000000000000000
%f  0.0000000  0.000000000  0.00000000000  0.000000000000000
%i    0    0    0    0      0      0      0      0         0
%i    0    0    0    0      0      0      0      0         0
/*      NGA, ST. LOUIS,MO.                                  
/*   EPHEMERIS COMPUTED FROM  1 DAYS OF DATA
/*   EPOCHA SMOOTHER  
/* CCCCCCCCCCCCCCCCCCCCCCCCCCCCCCCCCCCCCCCCCCCCCCCCCCCCCCCCC
*  2012  5 28  6 25  0.00000000                                                 
P  1  18188.888586  13659.272186 -13747.323862    258.682498                    
V  1 -17512.579115  -1442.480029 -24580.881584      0.018341                    
P  2   5758.826734 -14825.833346  21361.400616    391.731366                    
V  2  26337.254682   5773.322237  -3618.400523      0.012793                    
P  3  -7447.860253  23625.280488  -9666.487338     54.733594                    
V  3  -9493.911760   7754.575781  27891.575570      0.050722                    
P  4  18939.324736  -8386.097530  16549.309990    196.889757                    
V  4  20518.431187   6549.521161 -19550.596670      0.115033                    
P  5    -51.989788 -24332.837968  10475.777677   -319.695257                    
V  5   6832.862469  11860.957634  27653.532772     -0.037865                    
P  6 -12614.595388  22436.140355  -5741.605930     23.050061                    
V  6  -7590.987167   3568.480453  30280.375402     -0.028482                    
P  7  25697.763403   7067.413868   1657.653138     85.244923                    
V  7  -2485.954768   1605.391188  31818.968783      0.034989                    
P  8  24194.641895    -75.689904 -11539.880568      1.295878                    
V  8  13508.966294   5365.721039  27566.237019      0.001139                    
P  9 -14090.023273 -14755.442669 -17540.849014    161.177312                    
V  9  20955.394846   3086.047064 -20114.131190      0.025825                    
P 10  12318.772585 -10689.787227  20639.414841    -39.557159                    
V 10   8788.755880  25466.143330   8241.144022     -0.012662                    
P 11  12926.226406  14413.578934 -18679.584333   -265.750708                    
V 11 -22991.222438   3452.155996 -13201.057445     -0.039473                    
P 12 -10862.490970 -23730.657241   5472.500993     71.390544                    
V 12    -69.788479  -7181.507682 -31045.721859      0.020824                    
P 13  18009.174242    873.731686  19393.443835    204.659895                    
V 13 -17625.268426  17529.652521  15364.632618     -0.023829                    
P 14 -21233.939122  14144.457274  -6922.848669    203.824621                    
V 14   4890.845891  -7947.728960 -30600.682923      0.008915                    
P 15  -4293.318493 -17007.207904 -19891.290555    -91.467506                    
V 15  17595.718549 -18307.492295  12068.586972     -0.001275                    
P 16   -985.007407  23996.600623  10982.112424   -236.342242                    
V 16  -5790.131457 -12947.599585  28087.478925     -0.012443                    
P 17  21157.691541 -13178.966295  -8645.303102    125.478992                    
V 17  -5883.196371  10025.802717 -29311.442050     -0.028396                    
P 18 -16995.634110  -7144.861852 -18878.566923    197.803156                    
V 18  -5882.434122 -24078.660277  13773.054162      0.017989                    
P 19    651.459757  17968.381030 -19458.167153   -269.604552                    
V 19 -19138.615017  15753.478686  14328.725387     -0.037305                    
P 20  14616.692695  20315.234427   8834.200168     63.567877                    
V 20    811.537827  11937.259570 -28220.741792      0.001821                    
P 21 -26415.035911  -4285.198194  -1989.086235   -226.531985                    
V 21  -2306.593876  -3852.960550  30580.950993     -0.024407                    
P 22 -13199.691762   9756.981738 -20679.590337    144.153213                    
V 22  -8777.831720 -25369.193367  -6437.451203      0.003497                    
P 23  10638.156944  10929.662123  21768.044388    201.023927                    
V 23 -18934.683532  20048.353381  -1185.030956     -0.037312                    
P 25 -16301.991216 -12806.109913  16606.774924     34.562637                    
V 25  -5128.423066 -20540.014087 -20767.366876      0.005149                    
P 26   9428.336312 -21046.505944 -13457.753681   -389.780139                    
V 26  13028.066589  -9745.076228  25913.381513      0.097459                    
P 27  -9379.231616 -14849.751175 -19468.988842    392.582702                    
V 27  25616.973057   3619.753601 -14174.662224      0.039965                    
P 28  13372.860160  -6058.809271 -21569.132767    148.697550                    
V 28   7787.780365  27613.379350  -3066.433646      0.040331                    
P 29 -16122.991897  -4184.637424  20742.347715    317.510037                    
V 29  17773.009501 -19259.321912  10007.007488      0.038254                    
P 30  -6059.043266  17969.209124  18235.990075   -204.392363                    
V 30 -11075.188912 -21241.059949  16922.411129     -0.209978                    
P 31 -17471.635898   8562.498976  18379.520741    246.857917                    
V 31 -21981.008687  -6192.919813 -17960.551854      0.040619                    
P 32   7747.816045  25568.530733   2585.104010   -448.388062                    
V 32  -1921.558926   3507.497488 -31025.171384     -0.039810                    
EOF
